start=new Date('2021-08-30T00:00:00.000Z').valueOf();
sats=[{"DECAY_DATE":null,"BSTAR":"0.00008679400000","FILE":"3105271","MEAN_MOTION_DDOT":"0.0000000000000","RCS_SIZE":"LARGE","APOAPSIS":"548.659","INCLINATION":"53.0584","ARG_OF_PERICENTER":"85.4622","ELEMENT_SET_NO":"999","RA_OF_ASC_NODE":"91.4331","OBJECT_ID":"2021-018C","MEAN_MOTION":"15.06399760","COUNTRY_CODE":"US","PERIOD":"95.592","SITE":"AFETR","TLE_LINE1":"1 47789U 21018C   21241.86111295  .00001011  00000-0  86794-4 0  9991","EPHEMERIS_TYPE":"0","MEAN_MOTION_DOT":"0.00001011","MEAN_ANOMALY":"274.6606","OBJECT_NAME":"STARLINK-2315","GP_ID":"183701377","TLE_LINE2":"2 47789  53.0584  91.4331 0002086  85.4622 274.6606 15.06399760 27765","EPOCH":"2021-08-29T20:40:00.158880","MEAN_ELEMENT_THEORY":"SGP4","REV_AT_EPOCH":"2776","LAUNCH_DATE":"2021-03-11","SEMIMAJOR_AXIS":"6925.349","REF_FRAME":"TEME","PERIAPSIS":"545.770","NORAD_CAT_ID":"47789","TIME_SYSTEM":"UTC","OBJECT_TYPE":"PAYLOAD","CLASSIFICATION_TYPE":"U","CENTER_NAME":"EARTH","ECCENTRICITY":"0.00020860"},{"PERIOD":"94.078","MEAN_MOTION":"15.30647834","COUNTRY_CODE":"US","SITE":"AFETR","RA_OF_ASC_NODE":"90.1478","OBJECT_ID":"2021-018D","ELEMENT_SET_NO":"999","INCLINATION":"53.0552","APOAPSIS":"474.886","RCS_SIZE":"LARGE","ARG_OF_PERICENTER":"53.8096","FILE":"3105271","BSTAR":"-0.00069437000000","DECAY_DATE":null,"MEAN_MOTION_DDOT":"0.0000000000000","CENTER_NAME":"EARTH","CLASSIFICATION_TYPE":"U","OBJECT_TYPE":"PAYLOAD","ECCENTRICITY":"0.00014680","SEMIMAJOR_AXIS":"6852.015","LAUNCH_DATE":"2021-03-11","MEAN_ELEMENT_THEORY":"SGP4","REV_AT_EPOCH":"2778","NORAD_CAT_ID":"47790","TIME_SYSTEM":"UTC","PERIAPSIS":"472.874","REF_FRAME":"TEME","OBJECT_NAME":"STARLINK-2319","GP_ID":"183700125","TLE_LINE2":"2 47790  53.0552  90.1478 0001468  53.8096 306.3039 15.30647834 27787","EPOCH":"2021-08-29T20:20:31.485696","TLE_LINE1":"1 47790U 21018D   21241.84758664 -.00021157  00000-0 -69437-3 0  9997","MEAN_ANOMALY":"306.3039","MEAN_MOTION_DOT":"-0.00021157","EPHEMERIS_TYPE":"0"},{"INCLINATION":"53.0634","APOAPSIS":"549.342","RCS_SIZE":"LARGE","ARG_OF_PERICENTER":"63.0321","FILE":"3105271","DECAY_DATE":null,"BSTAR":"0.00000106210000","MEAN_MOTION_DDOT":"0.0000000000000","PERIOD":"95.592","MEAN_MOTION":"15.06395049","COUNTRY_CODE":"US","SITE":"AFETR","OBJECT_ID":"2021-018E","RA_OF_ASC_NODE":"111.1539","ELEMENT_SET_NO":"999","OBJECT_NAME":"STARLINK-2322","TLE_LINE2":"2 47791  53.0634 111.1539 0003051  63.0321 297.0979 15.06395049 27493","GP_ID":"183699875","EPOCH":"2021-08-29T22:07:35.298048","TLE_LINE1":"1 47791U 21018E   21241.92193632 -.00000266  00000-0  10621-5 0  9995","MEAN_MOTION_DOT":"-0.00000266","MEAN_ANOMALY":"297.0979","EPHEMERIS_TYPE":"0","CLASSIFICATION_TYPE":"U","CENTER_NAME":"EARTH","OBJECT_TYPE":"PAYLOAD","ECCENTRICITY":"0.00030510","LAUNCH_DATE":"2021-03-11","SEMIMAJOR_AXIS":"6925.364","MEAN_ELEMENT_THEORY":"SGP4","REV_AT_EPOCH":"2749","PERIAPSIS":"545.116","NORAD_CAT_ID":"47791","TIME_SYSTEM":"UTC","REF_FRAME":"TEME"},{"RA_OF_ASC_NODE":"91.4114","OBJECT_ID":"2021-018F","ELEMENT_SET_NO":"999","SITE":"AFETR","PERIOD":"95.592","MEAN_MOTION":"15.06402652","COUNTRY_CODE":"US","MEAN_MOTION_DDOT":"0.0000000000000","FILE":"3105271","BSTAR":"-0.00000793580000","DECAY_DATE":null,"ARG_OF_PERICENTER":"88.6702","INCLINATION":"53.0563","APOAPSIS":"548.728","RCS_SIZE":"LARGE","NORAD_CAT_ID":"47792","TIME_SYSTEM":"UTC","PERIAPSIS":"545.683","REF_FRAME":"TEME","SEMIMAJOR_AXIS":"6925.340","LAUNCH_DATE":"2021-03-11","MEAN_ELEMENT_THEORY":"SGP4","REV_AT_EPOCH":"2776","ECCENTRICITY":"0.00021990","CENTER_NAME":"EARTH","CLASSIFICATION_TYPE":"U","OBJECT_TYPE":"PAYLOAD","MEAN_MOTION_DOT":"-0.00000400","MEAN_ANOMALY":"271.4539","EPHEMERIS_TYPE":"0","TLE_LINE1":"1 47792U 21018F   21241.86848409 -.00000400  00000-0 -79358-5 0  9991","TLE_LINE2":"2 47792  53.0563  91.4114 0002199  88.6702 271.4539 15.06402652 27769","EPOCH":"2021-08-29T20:50:37.025376","GP_ID":"183701127","OBJECT_NAME":"STARLINK-2334"},{"EPOCH":"2021-08-29T21:11:51.440064","TLE_LINE2":"2 47793  53.0556  91.3406 0002471  93.8410 266.2862 15.06399599 27757","GP_ID":"183700877","OBJECT_NAME":"STARLINK-2338","EPHEMERIS_TYPE":"0","MEAN_ANOMALY":"266.2862","MEAN_MOTION_DOT":"0.00000151","TLE_LINE1":"1 47793U 21018G   21241.88323426  .00000151  00000-0  29043-4 0  9997","ECCENTRICITY":"0.00024710","OBJECT_TYPE":"PAYLOAD","CLASSIFICATION_TYPE":"U","CENTER_NAME":"EARTH","REF_FRAME":"TEME","PERIAPSIS":"545.504","NORAD_CAT_ID":"47793","TIME_SYSTEM":"UTC","MEAN_ELEMENT_THEORY":"SGP4","REV_AT_EPOCH":"2775","LAUNCH_DATE":"2021-03-11","SEMIMAJOR_AXIS":"6925.350","ARG_OF_PERICENTER":"93.8410","RCS_SIZE":"LARGE","APOAPSIS":"548.926","INCLINATION":"53.0556","MEAN_MOTION_DDOT":"0.0000000000000","DECAY_DATE":null,"BSTAR":"0.00002904300000","FILE":"3105271","SITE":"AFETR","COUNTRY_CODE":"US","MEAN_MOTION":"15.06399599","PERIOD":"95.592","ELEMENT_SET_NO":"999","RA_OF_ASC_NODE":"91.3406","OBJECT_ID":"2021-018G"},{"MEAN_MOTION_DOT":"-0.00000601","MEAN_ANOMALY":"263.1136","EPHEMERIS_TYPE":"0","TLE_LINE1":"1 47794U 21018H   21241.88691742 -.00000601  00000-0 -21429-4 0  9999","EPOCH":"2021-08-29T21:17:09.665088","TLE_LINE2":"2 47794  53.0571  91.3279 0002248  97.0109 263.1136 15.06393430 27765","GP_ID":"183699625","OBJECT_NAME":"STARLINK-2341","PERIAPSIS":"545.677","NORAD_CAT_ID":"47794","TIME_SYSTEM":"UTC","REF_FRAME":"TEME","LAUNCH_DATE":"2021-03-11","SEMIMAJOR_AXIS":"6925.369","REV_AT_EPOCH":"2776","MEAN_ELEMENT_THEORY":"SGP4","ECCENTRICITY":"0.00022480","CLASSIFICATION_TYPE":"U","CENTER_NAME":"EARTH","OBJECT_TYPE":"PAYLOAD","MEAN_MOTION_DDOT":"0.0000000000000","FILE":"3105271","DECAY_DATE":null,"BSTAR":"-0.00002142900000","ARG_OF_PERICENTER":"97.0109","INCLINATION":"53.0571","RCS_SIZE":"LARGE","APOAPSIS":"548.791","RA_OF_ASC_NODE":"91.3279","OBJECT_ID":"2021-018H","ELEMENT_SET_NO":"999","SITE":"AFETR","PERIOD":"95.593","COUNTRY_CODE":"US","MEAN_MOTION":"15.06393430"},{"BSTAR":"-0.00001338600000","DECAY_DATE":null,"FILE":"3105271","MEAN_MOTION_DDOT":"0.0000000000000","APOAPSIS":"548.688","RCS_SIZE":"LARGE","INCLINATION":"53.0559","ARG_OF_PERICENTER":"96.8694","ELEMENT_SET_NO":"999","RA_OF_ASC_NODE":"91.3741","OBJECT_ID":"2021-018J","COUNTRY_CODE":"US","MEAN_MOTION":"15.06386282","PERIOD":"95.593","SITE":"AFETR","TLE_LINE1":"1 47795U 21018J   21241.87586494 -.00000481  00000-0 -13386-4 0  9995","EPHEMERIS_TYPE":"0","MEAN_ANOMALY":"263.2530","MEAN_MOTION_DOT":"-0.00000481","OBJECT_NAME":"STARLINK-2347","EPOCH":"2021-08-29T21:01:14.730816","TLE_LINE2":"2 47795  53.0559  91.3741 0002068  96.8694 263.2530 15.06386282 27814","GP_ID":"183700376","MEAN_ELEMENT_THEORY":"SGP4","REV_AT_EPOCH":"2781","SEMIMAJOR_AXIS":"6925.391","LAUNCH_DATE":"2021-03-11","REF_FRAME":"TEME","NORAD_CAT_ID":"47795","TIME_SYSTEM":"UTC","PERIAPSIS":"545.823","OBJECT_TYPE":"PAYLOAD","CENTER_NAME":"EARTH","CLASSIFICATION_TYPE":"U","ECCENTRICITY":"0.00020680"},{"EPHEMERIS_TYPE":"0","MEAN_MOTION_DOT":"-0.00000431","MEAN_ANOMALY":"259.9100","TLE_LINE1":"1 47796U 21018K   21241.89060448 -.00000431  00000-0 -10000-4 0  9999","GP_ID":"183700627","TLE_LINE2":"2 47796  53.0566  91.3101 0002236 100.2141 259.9100 15.06405191 27767","EPOCH":"2021-08-29T21:22:28.227072","OBJECT_NAME":"STARLINK-2373","REF_FRAME":"TEME","NORAD_CAT_ID":"47796","TIME_SYSTEM":"UTC","PERIAPSIS":"545.649","MEAN_ELEMENT_THEORY":"SGP4","REV_AT_EPOCH":"2776","SEMIMAJOR_AXIS":"6925.333","LAUNCH_DATE":"2021-03-11","ECCENTRICITY":"0.00022360","OBJECT_TYPE":"PAYLOAD","CENTER_NAME":"EARTH","CLASSIFICATION_TYPE":"U","MEAN_MOTION_DDOT":"0.0000000000000","BSTAR":"-0.00001000000000","DECAY_DATE":null,"FILE":"3105271","ARG_OF_PERICENTER":"100.2141","APOAPSIS":"548.746","RCS_SIZE":"LARGE","INCLINATION":"53.0566","ELEMENT_SET_NO":"999","OBJECT_ID":"2021-018K","RA_OF_ASC_NODE":"91.3101","SITE":"AFETR","COUNTRY_CODE":"US","MEAN_MOTION":"15.06405191","PERIOD":"95.592"},{"CENTER_NAME":"EARTH","CLASSIFICATION_TYPE":"U","OBJECT_TYPE":"PAYLOAD","ECCENTRICITY":"0.00020980","SEMIMAJOR_AXIS":"6925.381","LAUNCH_DATE":"2021-03-11","REV_AT_EPOCH":"2741","MEAN_ELEMENT_THEORY":"SGP4","NORAD_CAT_ID":"47797","TIME_SYSTEM":"UTC","PERIAPSIS":"545.793","REF_FRAME":"TEME","OBJECT_NAME":"STARLINK-2377","TLE_LINE2":"2 47797  53.0545 116.1440 0002098  69.5712 290.5502 15.06389361 27413","EPOCH":"2021-08-29T22:14:53.324448","GP_ID":"183701378","TLE_LINE1":"1 47797U 21018L   21241.92700607 -.00000287  00000-0 -32689-6 0  9990","MEAN_ANOMALY":"290.5502","MEAN_MOTION_DOT":"-0.00000287","EPHEMERIS_TYPE":"0","PERIOD":"95.593","MEAN_MOTION":"15.06389361","COUNTRY_CODE":"US","SITE":"AFETR","RA_OF_ASC_NODE":"116.1440","OBJECT_ID":"2021-018L","ELEMENT_SET_NO":"999","INCLINATION":"53.0545","APOAPSIS":"548.699","RCS_SIZE":"LARGE","ARG_OF_PERICENTER":"69.5712","FILE":"3105271","BSTAR":"-0.00000032689000","DECAY_DATE":null,"MEAN_MOTION_DDOT":"0.0000000000000"},{"OBJECT_NAME":"STARLINK-2379","TLE_LINE2":"2 47798  53.0554  91.2580 0002149  95.4652 264.6582 15.06408780 27765","EPOCH":"2021-08-29T21:38:23.567424","GP_ID":"183700126","TLE_LINE1":"1 47798U 21018M   21241.90166166  .00000305  00000-0  39398-4 0  9996","MEAN_MOTION_DOT":"0.00000305","MEAN_ANOMALY":"264.6582","EPHEMERIS_TYPE":"0","CENTER_NAME":"EARTH","CLASSIFICATION_TYPE":"U","OBJECT_TYPE":"PAYLOAD","ECCENTRICITY":"0.00021490","SEMIMAJOR_AXIS":"6925.322","LAUNCH_DATE":"2021-03-11","REV_AT_EPOCH":"2776","MEAN_ELEMENT_THEORY":"SGP4","NORAD_CAT_ID":"47798","TIME_SYSTEM":"UTC","PERIAPSIS":"545.698","REF_FRAME":"TEME","INCLINATION":"53.0554","RCS_SIZE":"LARGE","APOAPSIS":"548.675","ARG_OF_PERICENTER":"95.4652","FILE":"3105271","BSTAR":"0.00003939800000","DECAY_DATE":null,"MEAN_MOTION_DDOT":"0.0000000000000","PERIOD":"95.592","MEAN_MOTION":"15.06408780","COUNTRY_CODE":"US","SITE":"AFETR","OBJECT_ID":"2021-018M","RA_OF_ASC_NODE":"91.2580","ELEMENT_SET_NO":"999"}];
